     2              NAVIGATION DATA                         RINEX VERSION / TYPE
CCRINEXN V1.6.0 UX  CDDIS               01-MAY-22 19:31     PGM / RUN BY / DATE 
IGS BROADCAST EPHEMERIS FILE                                COMMENT             
    0.2235D-07  0.1490D-07 -0.1192D-06 -0.5960D-07          ION ALPHA           
    0.1249D+06  0.6554D+05 -0.1966D+06  0.6554D+05          ION BETA            
   -0.186264514923D-08-0.355271367880D-14    61440     2208 DELTA-UTC: A0,A1,T,W
    18                                                      LEAP SECONDS        
                                                            END OF HEADER       
25 22  4 30 14  0  0.0 0.318709760904D-03 0.488853402203D-11 0.000000000000D+00
    0.150000000000D+02 0.111375000000D+03 0.478591363823D-08 0.309808396018D+01
    0.562332570553D-05 0.105333820684D-01 0.413879752159D-05 0.515368192291D+04
    0.568800000000D+06 0.651925802231D-07 0.100347147157D+01-0.184401869774D-06
    0.957021192231D+00 0.294656250000D+03 0.100287843092D+01-0.820819904729D-08
    0.319656172106D-09 0.100000000000D+01 0.220700000000D+04 0.000000000000D+00
    0.200000000000D+01 0.000000000000D+00 0.558793544769D-08 0.150000000000D+02
    0.561618000000D+06 0.400000000000D+01 0.000000000000D+00 0.000000000000D+00
26 22  4 30 14  0  0.0 0.202358700335D-03 0.272848410532D-11 0.000000000000D+00
    0.660000000000D+02 0.120625000000D+03 0.531307845390D-08 0.243477449553D+01
    0.619515776634D-05 0.691791763529D-02 0.506825745106D-05 0.515374282265D+04
    0.568800000000D+06-0.152736902237D-06 0.955073372399D+00-0.540167093277D-07
    0.937898354271D+00 0.270781250000D+03 0.390976538085D+00-0.851249743683D-08
    0.388944772540D-09 0.100000000000D+01 0.220700000000D+04 0.000000000000D+00
    0.200000000000D+01 0.000000000000D+00 0.698491930962D-08 0.660000000000D+02
    0.565278000000D+06 0.400000000000D+01 0.000000000000D+00 0.000000000000D+00
27 22  4 30 14  0  0.0 0.194373540580D-03 0.750333128963D-11 0.000000000000D+00
    0.116000000000D+03-0.762500000000D+02 0.466698011274D-08 0.615884732654D+00
   -0.373646616936D-05 0.105320325820D-01 0.276416540146D-05 0.515365057945D+04
    0.568800000000D+06-0.484287738800D-07 0.205656996666D+01 0.160187482834D-06
    0.972329734625D+00 0.329718750000D+03 0.674368085200D+00-0.850999733269D-08
   -0.510021244432D-09 0.100000000000D+01 0.220700000000D+04 0.000000000000D+00
    0.200000000000D+01 0.000000000000D+00 0.139698386192D-08 0.116000000000D+03
    0.561657000000D+06 0.400000000000D+01 0.000000000000D+00 0.000000000000D+00
28 22  4 30 14  0  0.0 0.365296844393D-03-0.511590769747D-11 0.000000000000D+00
    0.700000000000D+02 0.940312500000D+02 0.475805533496D-08 0.106809430948D+01
    0.459514558315D-05 0.166093156440D-01 0.441260635853D-05 0.515368394470D+04
    0.568800000000D+06-0.119209289551D-06 0.110314520345D+01-0.379979610443D-06
    0.968532648827D+00 0.299968750000D+03-0.128079353689D+01-0.844749472921D-08
    0.345014371233D-09 0.100000000000D+01 0.220700000000D+04 0.000000000000D+00
    0.200000000000D+01 0.630000000000D+02-0.111758708954D-07 0.700000000000D+02
    0.568699000000D+06 0.400000000000D+01 0.000000000000D+00 0.000000000000D+00
29 22  4 30 14  0  0.0-0.508691649884D-03-0.409272615798D-11 0.000000000000D+00
    0.730000000000D+02-0.911562500000D+02 0.426874923911D-08 0.741225138408D+00
   -0.499188899994D-05 0.209346890915D-02 0.401586294174D-05 0.515371303749D+04
    0.568800000000D+06-0.335276126862D-07 0.213276582221D+01-0.316649675369D-07
    0.980890601025D+00 0.311593750000D+03 0.224652843974D+01-0.813926760460D-08
   -0.476805575152D-09 0.100000000000D+01 0.220700000000D+04 0.000000000000D+00
    0.280000000000D+01 0.000000000000D+00-0.102445483208D-07 0.730000000000D+02
    0.561618000000D+06 0.400000000000D+01 0.000000000000D+00 0.000000000000D+00
30 22  4 30 14  0  0.0-0.526012387127D-03-0.159161572810D-11 0.000000000000D+00
    0.120000000000D+02 0.285937500000D+02 0.484555897984D-08-0.225814328807D+01
    0.119954347610D-05 0.576465670019D-02 0.123325735331D-04 0.515378496933D+04
    0.568800000000D+06 0.335276126862D-07-0.196207728497D-01-0.931322574615D-07
    0.936477761338D+00 0.130812500000D+03-0.270748566981D+01-0.803712049261D-08
   -0.105004373854D-09 0.100000000000D+01 0.220700000000D+04 0.000000000000D+00
    0.200000000000D+01 0.000000000000D+00 0.372529029846D-08 0.120000000000D+02
    0.561658000000D+06 0.400000000000D+01 0.000000000000D+00 0.000000000000D+00
31 22  4 30 14  0  0.0-0.175649300218D-03-0.159161572810D-11 0.000000000000D+00
    0.130000000000D+02 0.544687500000D+02 0.435053836024D-08-0.273092849461D+01
    0.259466469288D-05 0.104251404991D-01 0.127982348204D-04 0.515373939323D+04
    0.568800000000D+06-0.111758708954D-06-0.132651106251D-01-0.210478901863D-06
    0.955535584292D+00 0.131812500000D+03 0.388523402942D+00-0.772817905254D-08
   -0.149291932894D-09 0.100000000000D+01 0.220700000000D+04 0.000000000000D+00
    0.200000000000D+01 0.000000000000D+00-0.135041773319D-07 0.130000000000D+02
    0.562128000000D+06 0.400000000000D+01 0.000000000000D+00 0.000000000000D+00
32 22  4 30 14  0  0.0-0.116621609777D-03-0.841282599140D-11 0.000000000000D+00
    0.420000000000D+02-0.343437500000D+02 0.492663378550D-08 0.126442966441D+01
   -0.185519456863D-05 0.593746441882D-02 0.568479299545D-05 0.515358631706D+04
    0.568800000000D+06-0.931322574615D-07-0.109180087208D+01 0.726431608200D-07
    0.957791778478D+00 0.265000000000D+03-0.229247988303D+01-0.832927551919D-08
   -0.356800576462D-09 0.100000000000D+01 0.220700000000D+04 0.000000000000D+00
    0.200000000000D+01 0.000000000000D+00 0.465661287308D-09 0.420000000000D+02
    0.561618000000D+06 0.400000000000D+01 0.000000000000D+00 0.000000000000D+00
19 22  4 30 15 59 44.0 0.151216983795D-03 0.500222085975D-11 0.000000000000D+00
    0.170000000000D+02-0.894687500000D+02 0.436589614281D-08-0.228125530467D+01
   -0.446289777756D-05 0.917752878740D-02 0.326707959175D-05 0.515369546127D+04
    0.575984000000D+06 0.372529029846D-07 0.216435884598D+01 0.191852450371D-06
    0.977667672537D+00 0.325750000000D+03 0.204720975743D+01-0.808676541767D-08
   -0.400730977768D-09 0.100000000000D+01 0.220700000000D+04 0.000000000000D+00
    0.200000000000D+01 0.000000000000D+00-0.158324837685D-07 0.170000000000D+02
    0.574537000000D+06 0.400000000000D+01 0.000000000000D+00 0.000000000000D+00
20 22  4 30 15 59 44.0 0.515584833920D-03-0.227373675443D-12 0.000000000000D+00
    0.390000000000D+02 0.389062500000D+02 0.494056293713D-08 0.473285340200D+00
    0.206753611565D-05 0.482810696121D-02 0.858865678310D-05 0.515355971146D+04
    0.575984000000D+06 0.152736902237D-06-0.228843121775D+01 0.335276126862D-07
    0.942756393611D+00 0.205468750000D+03-0.312369922419D+01-0.826141554969D-08
    0.535736601294D-09 0.100000000000D+01 0.220700000000D+04 0.000000000000D+00
    0.200000000000D+01 0.000000000000D+00-0.838190317154D-08 0.390000000000D+02
    0.575436000000D+06 0.400000000000D+01 0.000000000000D+00 0.000000000000D+00
21 22  4 30 15 59 44.0 0.160829164088D-03 0.227373675443D-12 0.000000000000D+00
    0.700000000000D+01-0.965312500000D+02 0.420053211188D-08 0.180423002465D+01
   -0.480748713017D-05 0.243270815117D-01 0.107698142529D-04 0.515376493645D+04
    0.575984000000D+06 0.370666384697D-06 0.302491132724D+01 0.132247805595D-06
    0.960351160972D+00 0.161000000000D+03-0.957634080298D+00-0.755245744731D-08
   -0.377158567311D-09 0.100000000000D+01 0.220700000000D+04 0.000000000000D+00
    0.200000000000D+01 0.000000000000D+00-0.102445483208D-07 0.700000000000D+01
    0.573487000000D+06 0.400000000000D+01 0.000000000000D+00 0.000000000000D+00
24 22  4 30 15 59 44.0 0.248896889389D-03-0.602540239925D-11 0.000000000000D+00
    0.490000000000D+02 0.173750000000D+02 0.497485007962D-08-0.247531937396D+00
    0.103563070297D-05 0.124394684099D-01 0.115726143122D-04 0.515369617462D+04
    0.575984000000D+06 0.279396772385D-07-0.115636893541D+00 0.186264514923D-06
    0.934773334502D+00 0.148000000000D+03 0.814337469864D+00-0.833927593574D-08
   -0.214651798252D-09 0.100000000000D+01 0.220700000000D+04 0.000000000000D+00
    0.200000000000D+01 0.000000000000D+00 0.232830643654D-08 0.490000000000D+02
    0.569028000000D+06 0.400000000000D+01 0.000000000000D+00 0.000000000000D+00
29 22  4 30 15 59 44.0-0.508721917868D-03-0.409272615798D-11 0.000000000000D+00
    0.400000000000D+01-0.827812500000D+02 0.432482300338D-08 0.178817867975D+01
   -0.432692468166D-05 0.209412875120D-02 0.322610139847D-05 0.515371669197D+04
    0.575984000000D+06-0.111758708954D-07 0.213270699389D+01-0.117346644402D-06
    0.980887037357D+00 0.322593750000D+03 0.224739528746D+01-0.819784147300D-08
   -0.443589905872D-09 0.100000000000D+01 0.220700000000D+04 0.000000000000D+00
    0.200000000000D+01 0.000000000000D+00-0.102445483208D-07 0.400000000000D+01
    0.573156000000D+06 0.400000000000D+01 0.000000000000D+00 0.000000000000D+00
 1 22  4 30 16  0  0.0 0.373274087906D-03-0.852651282912D-11 0.000000000000D+00
    0.380000000000D+02-0.719375000000D+02 0.368943939425D-08-0.546108114818D+00
   -0.375695526600D-05 0.118205589242D-01 0.120569020510D-04 0.515366970062D+04
    0.576000000000D+06-0.745058059692D-08 0.311777578550D+01 0.180676579475D-06
    0.987926346069D+00 0.158687500000D+03 0.897966938830D+00-0.774210820417D-08
   -0.113933317209D-09 0.100000000000D+01 0.220700000000D+04 0.000000000000D+00
    0.200000000000D+01 0.000000000000D+00 0.512227416039D-08 0.380000000000D+02
    0.574297000000D+06 0.400000000000D+01 0.000000000000D+00 0.000000000000D+00
